[{"OBJECT_NAME":"STARLINK-1043","OBJECT_ID":"2019-074AM","EPOCH":"2026-03-09T15:47:17.837376","MEAN_MOTION":15.53675122,"ECCENTRICITY":0.00020644,"INCLINATION":53.0519,"RA_OF_ASC_NODE":194.6522,"ARG_OF_PERICENTER":78.486,"MEAN_ANOMALY":281.6381,"EPHEMERIS_TYPE":0,"CLASSIFICATION_TYPE":"U","NORAD_CAT_ID":44748,"ELEMENT_SET_NO":999,"REV_AT_EPOCH":34864,"BSTAR":0.00054549296,"MEAN_MOTION_DOT":0.00035156,"MEAN_MOTION_DDOT":0},{"OBJECT_NAME":"STARLINK-1845","OBJECT_ID":"2020-088P","EPOCH":"2026-03-09T20:43:16.524480","MEAN_MOTION":15.54626458,"ECCENTRICITY":0.00017329,"INCLINATION":53.0527,"RA_OF_ASC_NODE":276.5578,"ARG_OF_PERICENTER":225.3823,"MEAN_ANOMALY":134.7046,"EPHEMERIS_TYPE":0,"CLASSIFICATION_TYPE":"U","NORAD_CAT_ID":47135,"ELEMENT_SET_NO":999,"REV_AT_EPOCH":29220,"BSTAR":0.0018015678,"MEAN_MOTION_DOT":0.00122705,"MEAN_MOTION_DDOT":0}]
